*******************************************************************************
JPL/HORIZONS                596 Scheila (A906 DL)          2020-Jun-22 09:15:49
Rec #:     596 (+COV) Soln.date: 2020-May-20_01:08:59   # obs: 4560 (1906-2020)
 
IAU76/J2000 helio. ecliptic osc. elements (au, days, deg., period=Julian yrs):
 
  EPOCH=  2455432.5 ! 2010-Aug-24.00 (TDB)         Residual RMS= .2878
   EC= .1652606657855787   QR= 2.443022719801099   TP= 2456066.8978800573
   OM= 70.71905358192529   W=  175.9464027681391   IN= 14.661975223312
   A= 2.926689350394927    MA= 235.1177093816266   ADIST= 3.410355980988755
   PER= 5.00695            N= .196851678           ANGMOM= .029023965
   DAN= 3.40867            DDN= 2.44389            L= 246.7970389
   B= 1.0252279            MOID= 1.43025005        TP= 2012-May-19.3978800573
 
Asteroid physical parameters (km, seconds, rotational period in hours):
   GM= n.a.                RAD= 79.863             ROTPER= 15.848
   H= 8.9                  G= .150                 B-V= .714
                           ALBEDO= .040            STYP= T
 
ASTEROID comments: 
1: soln ref.= JPL#79, OCC=0
2: source=ORB
*******************************************************************************
 
 
*******************************************************************************
Ephemeris / WWW_USER Mon Jun 22 09:15:49 2020 Pasadena, USA      / Horizons
*******************************************************************************
Target body name: 596 Scheila (A906 DL)           {source: JPL#79}
Center body name: Solar System Barycenter (0)     {source: DE431}
Center-site name: BODY CENTER
*******************************************************************************
Start time      : A.D. 1969-Jun-28 00:00:00.0000 TDB
Stop  time      : A.D. 2071-May-04 00:00:00.0000 TDB
Step-size       : 7200 minutes
*******************************************************************************
Center geodetic : 0.00000000,0.00000000,0.0000000 {E-lon(deg),Lat(deg),Alt(km)}
Center cylindric: 0.00000000,0.00000000,0.0000000 {E-lon(deg),Dxy(km),Dz(km)}
Center radii    : (undefined)                                                  
Small perturbers: Yes                             {source: SB431-N16}
Output units    : AU-D
Output type     : GEOMETRIC cartesian states
Output format   : 2 (position and velocity)
Reference frame : Ecliptic of J2000.0
*******************************************************************************
Initial IAU76/J2000 heliocentric ecliptic osculating elements (au, days, deg.):
  EPOCH=  2455432.5 ! 2010-Aug-24.00 (TDB)         Residual RMS= .2878         
   EC= .1652606657855787   QR= 2.443022719801099   TP= 2456066.8978800573      
   OM= 70.71905358192529   W=  175.9464027681391   IN= 14.661975223312         
  Equivalent ICRF heliocentric equatorial cartesian coordinates (au, au/d):
   X=-9.451362934407175E-01  Y= 2.617588596686872E+00  Z= 1.678268371969137E+00
  VX=-7.950301594432569E-03 VY=-4.217672688646385E-03 VZ=-5.501756963521062E-05
Asteroid physical parameters (km, seconds, rotational period in hours):        
   GM= n.a.                RAD= 79.863             ROTPER= 15.848              
   H= 8.9                  G= .150                 B-V= .714                   
                           ALBEDO= .040            STYP= T                     
*******************************************************************************
            JDTDB,            Calendar Date (TDB),        delta-T,                      X,                      Y,                      Z,                     VX,                     VY,                     VZ,
******************************************************************************************************************************************************************************************************************
$$SOE
2472600.500000000, A.D. 2057-Aug-25 00:00:00.0000,      69.182753, -5.616203758619095E-01, -2.404914373100552E+00, -7.778514208936163E-02,  1.106648566639115E-02, -2.755869078395977E-03, -2.957888850917787E-03,
2472605.500000000, A.D. 2057-Aug-30 00:00:00.0000,      69.182665, -5.061559425184282E-01, -2.418101780887061E+00, -9.255420092142663E-02,  1.111836349746024E-02, -2.518950464392788E-03, -2.949495297696174E-03,
2472610.500000000, A.D. 2057-Sep-04 00:00:00.0000,      69.182587, -4.504459954102150E-01, -2.430102587661453E+00, -1.072777110531414E-01,  1.116468883843402E-02, -2.281257793429261E-03, -2.939671390755619E-03,
2472615.500000000, A.D. 2057-Sep-09 00:00:00.0000,      69.182518, -3.945183264142213E-01, -2.440913359672760E+00, -1.219485523602873E-01,  1.120545103350603E-02, -2.042965614768039E-03, -2.928430055415159E-03,
2472620.500000000, A.D. 2057-Sep-14 00:00:00.0000,      69.182458, -3.384007640064068E-01, -2.450531534668666E+00, -1.365596733233380E-01,  1.124064608987960E-02, -1.804247922072818E-03, -2.915785801001189E-03,
2472625.500000000, A.D. 2057-Sep-19 00:00:00.0000,      69.182409, -2.821211400978695E-01, -2.458955418274567E+00, -1.511040988354802E-01,  1.127027661408191E-02, -1.565277817309890E-03, -2.901754675342223E-03,
2472630.500000000, A.D. 2057-Sep-24 00:00:00.0000,      69.182374, -2.257072572371246E-01, -2.466184178709951E+00, -1.655749377728566E-01,  1.129435172928123E-02, -1.326227182088160E-03, -2.886354215208916E-03,
2472635.500000000, A.D. 2057-Sep-29 00:00:00.0000,      69.182351, -1.691868562722753E-01, -2.472217839883625E+00, -1.799653903074757E-01,  1.131288697409644E-02, -1.087266358084544E-03, -2.869603392993001E-03,
2472640.500000000, A.D. 2057-Oct-04 00:00:00.0000,      69.182340, -1.125875845641314E-01, -2.477057272916152E+00, -1.942687549447320E-01,  1.132590418353727E-02, -8.485638376606035E-04, -2.851522559918835E-03,
2472645.500000000, A.D. 2057-Oct-09 00:00:00.0000,      69.182340, -5.593696483749495E-02, -2.480704186142819E+00, -2.084784352689538E-01,  1.133343135295930E-02, -6.102859656144081E-04, -2.832133386099062E-03,
2472650.500000000, A.D. 2057-Oct-14 00:00:00.0000,      69.182351,  7.376352469319266E-04, -2.483161113655227E+00, -2.225879463820235E-01,  1.133550248602892E-02, -3.725966530457879E-04, -2.811458797763120E-03,
2472655.500000000, A.D. 2057-Oct-19 00:00:00.0000,      69.182374,  5.740903272260901E-02, -2.484431402444486E+00, -2.365909210217713E-01,  1.133215742771786E-02, -1.356571042788791E-04, -2.789522911994062E-03,
2472660.500000000, A.D. 2057-Oct-24 00:00:00.0000,      69.182411,  1.140502580769677E-01, -2.484519198213385E+00, -2.504811153485271E-01,  1.132344168339071E-02,  1.003744423483265E-04, -2.766350969308466E-03,
2472665.500000000, A.D. 2057-Oct-29 00:00:00.0000,      69.182461,  1.706345830742517E-01, -2.483429429928581E+00, -2.642524143898610E-01,  1.130940622512983E-02,  3.353429591655641E-04, -2.741969264412225E-03,
2472670.500000000, A.D. 2057-Nov-03 00:00:00.0000,      69.182522,  2.271355475806744E-01, -2.481167793186908E+00, -2.778988371352578E-01,  1.129010728655534E-02,  5.690968587444034E-04, -2.716405075470528E-03,
2472675.500000000, A.D. 2057-Nov-08 00:00:00.0000,      69.182593,  2.835269853376856E-01, -2.477740732472810E+00, -2.914145412741485E-01,  1.126560614747162E-02,  8.014882077759154E-04, -2.689686592245287E-03,
2472680.500000000, A.D. 2057-Nov-13 00:00:00.0000,      69.182673,  3.397830486357578E-01, -2.473155422386899E+00, -3.047938275725673E-01,  1.123596890963525E-02,  1.032372924640226E-03, -2.661842843465353E-03,
2472685.500000000, A.D. 2057-Nov-18 00:00:00.0000,      69.182764,  3.958782318472930E-01, -2.467419747928556E+00, -3.180311438854852E-01,  1.120126626482357E-02,  1.261610960151871E-03, -2.632903623787715E-03,
2472690.500000000, A.D. 2057-Nov-23 00:00:00.0000,      69.182865,  4.517873937829421E-01, -2.460542283917542E+00, -3.311210888036305E-01,  1.116157325631538E-02,  1.489066461183611E-03, -2.602899420684117E-03,
2472695.500000000, A.D. 2057-Nov-28 00:00:00.0000,      69.182976,  5.074857788411943E-01, -2.452532273640483E+00, -3.440584149352155E-01,  1.111696903490900E-02,  1.714607917083409E-03, -2.571861341564235E-03,
2472700.500000000, A.D. 2057-Dec-03 00:00:00.0000,      69.183095,  5.629490369267849E-01, -2.443399606808232E+00, -3.568380318244735E-01,  1.106753661061909E-02,  1.938108288936563E-03, -2.539821041428289E-03,
2472705.500000000, A.D. 2057-Dec-08 00:00:00.0000,      69.183219,  6.181532421190723E-01, -2.433154796909368E+00, -3.694550085103403E-01,  1.101336260114546E-02,  2.159445121900961E-03, -2.506810651308392E-03,
2472710.500000000, A.D. 2057-Dec-13 00:00:00.0000,      69.183348,  6.730749100769395E-01, -2.421808958043401E+00, -3.819045757297676E-01,  1.095453697820438E-02,  2.378500641080802E-03, -2.472862707713549E-03,
2472715.500000000, A.D. 2057-Dec-18 00:00:00.0000,      69.183482,  7.276910141725129E-01, -2.409373781314848E+00, -3.941821277712187E-01,  1.089115281293109E-02,  2.595161831337296E-03, -2.438010083301327E-03,
2472720.500000000, A.D. 2057-Dec-23 00:00:00.0000,      69.183622,  7.819790003519947E-01, -2.395861510868261E+00, -4.062832239851337E-01,  1.082330602148695E-02,  2.809320501101445E-03, -2.402285919031538E-03,
2472725.500000000, A.D. 2057-Dec-28 00:00:00.0000,      69.183766,  8.359168007268549E-01, -2.381284919643806E+00, -4.182035899592763E-01,  1.075109511172157E-02,  3.020873330426100E-03, -2.365723557989851E-03,
2472730.500000000, A.D. 2058-Jan-02 00:00:00.0000,      69.183911,  8.894828459025700E-01, -2.365657284930527E+00, -4.299391183675738E-01,  1.067462093167327E-02,  3.229721904004633E-03, -2.328356480969452E-03,
2472735.500000000, A.D. 2058-Jan-07 00:00:00.0000,      69.184055,  9.426560760564585E-01, -2.348992363790263E+00, -4.414858695014150E-01,  1.059398642088587E-02,  3.435772730028973E-03, -2.290218243891277E-03,
